{"type": "FeatureCollection", "features": [ {"type": "Feature", "properties": {"norad_id": 61186, "name": "BEIDOU-3 M25 (C47)", "group": "beidou", "lat": -46.86080921067809, "lon": -101.03739428398606, "alt_km": 21518.446478810438, "timestamp": "2025-12-27T12:55:14.770890+00:00", "meta": {"OBJECT_NAME": "BEIDOU-3 M25 (C47)", "OBJECT_ID": "2024-168B", "EPOCH": "2025-12-27T04:57:33.161184", "MEAN_MOTION": 1.86229887, "ECCENTRICITY": 0.00053895, "INCLINATION": 54.629, "RA_OF_ASC_NODE": 308.2197, "ARG_OF_PERICENTER": 300.5492, "MEAN_ANOMALY": 133.5608, "EPHEMERIS_TYPE": 0, "CLASSIFICATION_TYPE": "U", "NORAD_CAT_ID": 61186, "ELEMENT_SET_NO": 999, "REV_AT_EPOCH": 858, "BSTAR": 0, "MEAN_MOTION_DOT": -6e-07, "MEAN_MOTION_DDOT": 0}, "tle": {"line1": "1 61186U 24168B   25361.20663381 -.00000060  00000+0  00000+0 0  9994", "line2": "2 61186  54.6290 308.2197 0005389 300.5492 133.5608  1.86229887  8586"}}, "geometry": {"type": "Point", "coordinates": [-101.03739428398606, -46.86080921067809]}}, {"type": "Feature", "properties": {"norad_id": 61187, "name": "BEIDOU-3 M27 (C49)", "group": "beidou", "lat": 50.657260360260764, "lon": 8.157267513186769, "alt_km": 21522.12622892629, "timestamp": "2025-12-27T12:55:14.770902+00:00", "meta": {"OBJECT_NAME": "BEIDOU-3 M27 (C49)", "OBJECT_ID": "2024-168C", "EPOCH": "2025-12-26T02:09:38.712960", "MEAN_MOTION": 1.86230112, "ECCENTRICITY": 0.00025351, "INCLINATION": 54.6256, "RA_OF_ASC_NODE": 308.2421, "ARG_OF_PERICENTER": 341.7609, "MEAN_ANOMALY": 198.677, "EPHEMERIS_TYPE": 0, "CLASSIFICATION_TYPE": "U", "NORAD_CAT_ID": 61187, "ELEMENT_SET_NO": 999, "REV_AT_EPOCH": 603, "BSTAR": 0, "MEAN_MOTION_DOT": -5.6e-07, "MEAN_MOTION_DDOT": 0}, "tle": {"line1": "1 61187U 24168C   25360.09003140 -.00000056  00000+0  00000+0 0  9997", "line2": "2 61187  54.6256 308.2421 0002535 341.7609 198.6770  1.86230112  6039"}}, "geometry": {"type": "Point", "coordinates": [8.157267513186769, 50.657260360260764]}}]}